SPACEBEE-122            
1 52014U 22026G   22287.48920868  .00020645  00000+0  10061-2 0  9996
2 52014  97.5081 286.1682 0023966 216.3984 143.5622 15.18109209 32235
SPACEBEE-119            
1 52015U 22026H   22288.51231325  .00017623  00000+0  86919-3 0  9993
2 52015  97.5089 287.1342 0024782 213.1388 146.8294 15.17706513 32385
SPACEBEE-115            
1 52016U 22026J   22287.49781360  .00019059  00000+0  93235-3 0  9993
2 52016  97.5090 286.1927 0024467 217.0714 142.8830 15.17982373 32238
SPACEBEENZ-14           
1 52018U 22026L   22288.47934565  .00023224  00000+0  10977-2 0  9991
2 52018  97.5078 287.3194 0023967 211.9585 148.0197 15.19145941 32393
SPACEBEENZ-11           
1 52019U 22026M   22287.74048859  .00027170  00000+0  12757-2 0  9995
2 52019  97.5071 286.6156 0023744 214.0226 145.9487 15.19346302 32242
SPACEBEE-127            
1 52020U 22026N   22287.50823982  .00018312  00000+0  89966-3 0  9994
2 52020  97.5077 286.1467 0024469 216.5237 143.4329 15.17840780 32182
SPACEBEE-125            
1 52021U 22026P   22287.98692479  .00019358  00000+0  93114-3 0  9993
2 52021  97.5068 286.7167 0026080 214.2887 145.6664 15.18529477 32187
SPACEBEE-117            
1 52022U 22026Q   22287.96466814  .00018988  00000+0  93036-3 0  9995
2 52022  97.5090 286.6442 0024540 214.9404 145.0221 15.17927059 32178
SPACEBEE-116            
1 52023U 22026R   22287.49230197  .00019313  00000+0  94314-3 0  9990
2 52023  97.5093 286.2030 0024260 217.0040 142.9521 15.18044095 32103
SPACEBEE-113            
1 52024U 22026S   22287.94678976  .00021497  00000+0  10450-2 0  9996
2 52024  97.5091 286.6598 0026303 211.9776 147.9863 15.18134335 32172
SPACEBEE-112            
1 52025U 22026T   22287.98977849  .00021278  00000+0  10234-2 0  9999
2 52025  97.5085 286.7542 0024192 214.0689 145.8994 15.18554603 32184
SPACEBEENZ-13           
1 52026U 22026U   22286.43352394  .00020511  00000+0  97147-3 0  9999
2 52026  97.5077 285.2930 0023823 219.5048 140.4451 15.19102972 31862
SPACEBEE-123            
1 52027U 22026V   22287.51699508  .00019514  00000+0  96005-3 0  9994
2 52027  97.5075 286.1245 0024484 216.6645 143.2914 15.17779553 32011
SPACEBEENZ-12           
1 52028U 22026W   22287.50720911  .00023448  00000+0  11174-2 0  9991
2 52028  97.5094 286.3405 0024028 215.6891 144.2738 15.18858289 32110
SPACEBEE-124            
1 52029U 22026X   22287.71842431  .00018731  00000+0  92386-3 0  9991
2 52029  97.5072 286.3142 0024481 215.9268 144.0320 15.17700589 30761
SPACEBEE-136            
1 52164U 22033H   22288.18071261  .00030508  00000+0  11706-2 0  9998
2 52164  97.3724   7.7764 0007703 320.6457  39.4222 15.26397998 29920
SPACEBEE-138            
1 52166U 22033K   22287.47029297  .00029143  00000+0  11233-2 0  9991
2 52166  97.3752   7.1067 0008674 313.3425  46.7090 15.26249915 29812
SPACEBEE-130            
1 52176U 22033V   22288.18330474  .00031139  00000+0  11921-2 0  9995
2 52176  97.3735   7.7966 0005817 316.8546  43.2236 15.26481431 29901
SPACEBEE-139            
1 52177U 22033W   22287.64851707  .00028962  00000+0  11334-2 0  9991
2 52177  97.3753   7.1799 0008682 319.0796  40.9790 15.25745711 29839
SPACEBEE-129            
1 52179U 22033Y   22288.17985893  .00029233  00000+0  11462-2 0  9990
2 52179  97.3738   7.6557 0007385 322.1791  37.8928 15.25689461 29893
SPACEBEE-134            
1 52180U 22033Z   22288.19995294  .00028172  00000+0  11194-2 0  9993
2 52180  97.3729   7.6254 0007605 321.6175  38.4521 15.25250075 29895
SPACEBEE-131            
1 52181U 22033AA  22288.16743683  .00028752  00000+0  11234-2 0  9993
2 52181  97.3742   7.6787 0007542 323.0483  37.0235 15.25808659 29894
SPACEBEE-128            
1 52182U 22033AB  22287.65076446  .00029094  00000+0  11397-2 0  9993
2 52182  97.3756   7.1848 0007677 323.3136  36.7576 15.25718307 29838
SPACEBEE-133            
1 52183U 22033AC  22287.64022095  .00027905  00000+0  10908-2 0  9990
2 52183  97.3746   7.1670 0007557 324.0891  35.9839 15.25799019 29825
SPACEBEE-132            
1 52185U 22033AE  22288.14155267  .00030464  00000+0  11766-2 0  9993
2 52185  97.3745   7.7286 0007407 336.3351  23.7546 15.26182920 29891
SPACEBEE-137            
1 52186U 22033AF  22288.17332056  .00029118  00000+0  11426-2 0  9997
2 52186  97.3745   7.6809 0007703 322.5497  37.5203 15.25660801 29890
SPACEBEE-135            
1 52187U 22033AG  22288.20594601  .00029596  00000+0  11434-2 0  9997
2 52187  97.3753   7.8108 0007028 317.2455  42.8236 15.26181643 29909
SPACEBEE-143            
1 52394U 22047A   22287.49751924  .00017673  00000+0  93859-3 0  9990
2 52394  97.4440   9.8280 0009970 120.2126 240.0095 15.15330755 26361
SPACEBEENZ-15           
1 52395U 22047B   22287.50660190  .00024276  00000+0  12504-2 0  9991
2 52395  97.4444   9.9649 0009559 119.4521 240.7667 15.16349380 26376
SPACEBEENZ-16           
1 52396U 22047C   22287.50666407  .00024754  00000+0  12753-2 0  9996
2 52396  97.4438   9.9639 0009498 119.1013 241.1172 15.16337253 26376
SPACEBEENZ-17           
1 52397U 22047D   22287.50906892  .00024284  00000+0  12526-2 0  9998
2 52397  97.4436   9.9613 0009517 119.3299 240.8885 15.16299320 26376
SPACEBEENZ-18           
1 52398U 22047E   22287.97187108  .00022700  00000+0  11708-2 0  9993
2 52398  97.4439  10.4139 0009624 117.6759 242.5452 15.16314837 26449
SPACEBEE-140            
1 52399U 22047F   22288.19286060  .00021126  00000+0  11043-2 0  9999
2 52399  97.4435  10.5801 0009577 117.1953 243.0257 15.15858609 26494
SPACEBEE-141            
1 52400U 22047G   22288.21189550  .00017759  00000+0  93894-3 0  9993
2 52400  97.4435  10.5556 0009936 116.2561 243.9694 15.15488545 26489
SPACEBEE-142            
1 52401U 22047H   22288.22287618  .00018438  00000+0  97867-3 0  9998
2 52401  97.4437  10.5375 0009792 116.6240 243.5997 15.15342332 26473
SPACEBEENZ-20           
1 52402U 22047J   22287.64927580  .00023742  00000+0  12273-2 0  9994
2 52402  97.4427  10.0657 0010247 121.9013 238.3218 15.16221079 26399
SPACEBEENZ-22           
1 52403U 22047K   22287.52326432  .00022950  00000+0  11909-2 0  9996
2 52403  97.4426   9.9287 0010283 122.0730 238.1503 15.16092372 26378
SPACEBEENZ-19           
1 52404U 22047L   22287.51507667  .00024413  00000+0  12608-2 0  9990
2 52404  97.4428   9.9398 0010336 122.1001 238.1237 15.16247226 26379
SPACEBEENZ-21           
1 52405U 22047M   22287.65058121  .00023351  00000+0  12083-2 0  9999
2 52405  97.4430  10.0650 0010227 122.0161 238.2066 15.16189445 26393
SPACEBEE-148            
1 52406U 22047N   22288.13547891  .00020543  00000+0  10766-2 0  9997
2 52406  97.4429  10.4896 0010308 119.7729 240.4531 15.15766055 26468
SPACEBEE-149            
1 52407U 22047P   22287.50382733  .00019539  00000+0  10376-2 0  9990
2 52407  97.4431   9.7999 0010348 121.4295 238.7951 15.15308106 26363
SPACEBEE-153            
1 52408U 22047Q   22288.20650329  .00018513  00000+0  97447-3 0  9994
2 52408  97.4461  10.6089 0010485 129.6716 230.5443 15.15631423 26477
SPACEBEE-150            
1 52409U 22047R   22288.15862037  .00018045  00000+0  95752-3 0  9997
2 52409  97.4434  10.4593 0010517 120.1636 240.0640 15.15351923 26467
SPACEBEE-144            
1 52410U 22047S   22288.22324897  .00018056  00000+0  95767-3 0  9992
2 52410  97.4443  10.5413 0009818 119.0099 241.2119 15.15373298 26477
SPACEBEE-145            
1 52411U 22047T   22288.16239768  .00018365  00000+0  97586-3 0  9992
2 52411  97.4435  10.4659 0009693 118.5654 241.6555 15.15304812 26465
SPACEBEE-146            
1 52412U 22047U   22287.51565085  .00018341  00000+0  98093-3 0  9993
2 52412  97.4430   9.7954 0009683 121.4678 238.7502 15.15075145 26360
SPACEBEE-151            
1 52413U 22047V   22287.63590445  .00018011  00000+0  95807-3 0  9999
2 52413  97.4433   9.9329 0010316 123.0299 237.1926 15.15266447 26386
SPACEBEE-152            
1 52414U 22047W   22287.18302241  .00015501  00000+0  82820-3 0  9997
2 52414  97.4426   9.4639 0010789 124.0893 236.1365 15.15137805 26317
SPACEBEE-147            
1 52415U 22047X   22288.16962438  .00018307  00000+0  97497-3 0  9990
2 52415  97.4433  10.4587 0009601 121.3651 238.8522 15.15227913 26463
SPACEBEE-155            
1 52416U 22047Y   22288.19076353  .00017233  00000+0  92940-3 0  9991
2 52416  97.4418  10.4063 0010820 124.6043 235.6211 15.14782027 26463
SPACEBEE-154            
1 52417U 22047Z   22287.51790566  .00019063  00000+0  10191-2 0  9996
2 52417  97.4431   9.7845 0010084 124.5655 235.6531 15.15080242 26363
